STARLINK-30603          
1 58080U 23160F   26162.57170992  .00001307  00000+0  57021-4 0  9999
2 58080  43.0010 267.7119 0002670 276.0954  83.9593 15.27578320147304
STARLINK-30602          
1 58081U 23160G   26162.79491386  .00021919  00000+0  84375-3 0  9999
2 58081  43.0004 269.3758 0001447 293.9362  66.1338 15.25969801147303
STARLINK-30610          
1 58082U 23160H   26162.72818641 -.00000634  00000+0 -13499-4 0  9993
2 58082  43.0014 267.1654 0001507 257.4886 102.5797 15.27576624147324
STARLINK-30551          
1 58083U 23160J   26162.56736757  .00000512  00000+0  28158-4 0  9994
2 58083  43.0220 271.0942 0001778 295.0010  65.0658 15.27574550147263
STARLINK-30586          
1 58084U 23160K   26160.60962626  .00001791  00000+0  74573-4 0  9996
2 58084  43.0057 282.1888 0001472 288.6837  71.3855 15.27585811146967
STARLINK-30609          
1 58085U 23160L   26162.77123420  .00000240  00000+0  18256-4 0  9992
2 58085  43.0042 270.0368 0002029 265.9037  94.1583 15.27576091147298
STARLINK-30583          
1 58086U 23160M   26162.57893035  .00001342  00000+0  58262-4 0  9992
2 58086  43.0001 271.1688 0000894 238.6949 121.3815 15.27584254147266
STARLINK-30557          
1 58087U 23160N   26162.58278279  .00000836  00000+0  39889-4 0  9992
2 58087  43.0013 271.1935 0001537 295.2656  64.8036 15.27582682147263
STARLINK-30591          
1 58088U 23160P   26161.04341245  .00000100  00000+0  13156-4 0  9990
2 58088  43.0010 276.0188 0001360 272.7494  87.3201 15.27580826147070
STARLINK-30584          
1 58089U 23160Q   26161.58063212 -.00000083  00000+0  65377-5 0  9999
2 58089  43.0043 273.1708 0002173 272.0334  88.0269 15.27582796147151
STARLINK-30590          
1 58090U 23160R   26161.99945131  .00007455  00000+0  28041-3 0  9999
2 58090  43.0038 274.5404 0000811 278.2618  81.8141 15.27550335147171
STARLINK-30608          
1 58091U 23160S   26161.98837120  .00000874  00000+0  41279-4 0  9994
2 58091  43.0016 271.0711 0001312 261.5380  98.5323 15.27581428147218
STARLINK-30615          
1 58092U 23160T   26162.73974053 -.00000599  00000+0 -12176-4 0  9996
2 58092  43.0118 267.2448 0004490 275.0320  85.0020 15.27572323147321
STARLINK-30578          
1 58093U 23160U   26162.56014639  .00000565  00000+0  30071-4 0  9998
2 58093  42.9998 267.6131 0001198 254.7880 105.2840 15.27575704147305
STARLINK-30574          
1 58094U 23160V   26162.75245793  .00000270  00000+0  19363-4 0  9991
2 58094  43.0036 266.4832 0001742 285.1615  74.9043 15.27570735147334
STARLINK-30570          
1 58095U 23160W   26162.56656627 -.00000386  00000+0 -44694-5 0  9999
2 58095  43.0100 267.6715 0002612 273.1137  86.9416 15.27576750147300
STARLINK-30581          
1 58096U 23160X   26162.31658795  .00002692  00000+0  10733-3 0  9996
2 58096  43.0028 269.2205 0001798 276.1089  83.9558 15.27575532147261
STARLINK-30594          
1 58097U 23161A   26162.94908565  .00009484  00000+0  33140-3 0  9993
2 58097  53.1622  87.6798 0002177  87.8453 272.2797 15.30251694148855
STARLINK-30614          
1 58098U 23161B   26162.94597051  .00000215  00000+0  19407-4 0  9992
2 58098  53.1615  87.6574 0001348 101.9055 258.2097 15.30193610148855
STARLINK-30607          
1 58099U 23161C   26162.94921765 -.00000218  00000+0  47763-5 0  9997
2 58099  53.1604  77.6756 0001257  98.5796 261.5347 15.30188137148984
STARLINK-30600          
1 58100U 23161D   26162.53404774  .00001514  00000+0  55925-4 0  9998
2 58100  53.1631  89.3430 0001410  86.8231 273.2933 15.34403834148799
STARLINK-30605          
1 58101U 23161E   26162.94175426  .00001122  00000+0  50037-4 0  9997
2 58101  53.1607  87.6334 0001589 111.2287 248.8884 15.30180443148852
STARLINK-30592          
1 58102U 23161F   26162.08163036  .00000815  00000+0  36111-4 0  9992
2 58102  53.1623  91.5090 0001165  95.1964 264.9172 15.33555917148726
STARLINK-30589          
1 58103U 23161G   26162.06424450  .00002493  00000+0  96304-4 0  9995
2 58103  53.1605  91.9049 0001567 105.1643 254.9531 15.30187426148717
STARLINK-30617          
1 58104U 23161H   26162.52463507 -.00000584  00000+0 -75794-5 0  9995
2 58104  53.1603  89.8058 0001505  94.7767 265.3405 15.30181008148787
STARLINK-30616          
1 58105U 23161J   26162.94535798 -.00006405  00000+0 -17856-3 0  9995
2 58105  53.1617  73.9932 0001649  98.3765 261.7425 15.34403205149036
STARLINK-30612          
1 58106U 23161K   26162.91800605  .00000918  00000+0  38305-4 0  9999
2 58106  53.1618  73.8374 0001391  87.5608 272.5554 15.34408918149036
STARLINK-30421          
1 58107U 23161L   26162.96419687  .00000205  00000+0  17198-4 0  9997
2 58107  53.1619  73.3877 0001391 101.0574 259.0585 15.34391782149051
STARLINK-30611          
1 58108U 23161M   26162.91378836 -.00001032  00000+0 -19411-4 0  9994
2 58108  53.1603  73.7615 0001273 120.0341 240.0788 15.34395988149047
STARLINK-30606          
1 58109U 23161N   26162.93119145 -.00000436  00000+0 -17727-5 0  9999
2 58109  53.1629  87.5655 0001429 102.9625 257.1538 15.34391055148851
STARLINK-30596          
1 58110U 23161P   26162.92908175 -.00002036  00000+0 -56640-4 0  9993
2 58110  53.1603  87.5517 0001209  99.6586 260.4551 15.30199952148856
STARLINK-30595          
1 58111U 23161Q   26162.96498368 -.00000446  00000+0 -29331-5 0  9997
2 58111  53.1603  87.7722 0001192  84.0069 276.1068 15.30181933148859
STARLINK-30593          
1 58112U 23161R   26162.96180124  .00001429  00000+0  60390-4 0  9995
2 58112  53.1594  87.7530 0001474  91.8118 268.3052 15.30193622148854
STARLINK-30353          
1 58113U 23161S   26162.97130890  .00003290  00000+0  12328-3 0  9997
2 58113  53.1605  87.8134 0001468  91.6595 268.4573 15.30167926148856
STARLINK-30572          
1 58114U 23161T   26162.95863056  .00002053  00000+0  81484-4 0  9999
2 58114  53.1606  87.7264 0000937  87.3664 272.7444 15.30176629148855
STARLINK-30580          
1 58115U 23161U   26162.93224919  .00000954  00000+0  44354-4 0  9990
2 58115  53.1599  87.5486 0001339  92.8983 267.2171 15.30189017148843
STARLINK-30493          
1 58116U 23161V   26162.96812353 -.00001737  00000+0 -46530-4 0  9999
2 58116  53.1620  87.7852 0001407  82.9452 277.1709 15.30207154148856
STARLINK-30601          
1 58117U 23161W   26162.97445272  .00001700  00000+0  69494-4 0  9995
2 58117  53.1589  87.8309 0001075  88.8916 271.2208 15.30199871148855
STARLINK-30795          
1 58118U 23162A   26162.13920549 -.00001773  00000+0 -54943-4 0  9995
2 58118  42.9986 324.3477 0000594 269.1151  90.9633 15.27569191146609
STARLINK-30765          
1 58119U 23162B   26162.87643994  .00000104  00000+0  13326-4 0  9998
2 58119  43.0037 320.4059 0001411 263.2449  96.8243 15.27576712146717
STARLINK-30768          
1 58120U 23162C   26162.14176782  .00002009  00000+0  82520-4 0  9994
2 58120  43.0076 324.3684 0000873 273.3171  86.7581 15.27571648146608
STARLINK-30799          
1 58121U 23162D   26161.76872667  .00002459  00000+0  98839-4 0  9996
2 58121  43.0038 326.7100 0001454 277.0559  83.0127 15.27584758146548
STARLINK-30759          
1 58122U 23162E   26162.87515920 -.00000283  00000+0 -77718-6 0  9996
2 58122  43.0025 320.4086 0000796 237.5457 122.5318 15.27578315146728
STARLINK-30781          
1 58123U 23162F   26162.15975581  .00000574  00000+0  30377-4 0  9990
2 58123  43.0139 324.4958 0000766 299.4112  60.6664 15.27596821146604
STARLINK-30754          
1 58124U 23162G   26161.18410565 -.00003570  00000+0 -12034-3 0  9999
2 58124  43.0006 330.0581 0001062  81.7678 278.3294 15.27559125140665
STARLINK-30766          
1 58125U 23162H   26161.72953122  .00000621  00000+0  32082-4 0  9999
2 58125  43.0032 323.8804 0001239 264.1682  95.9029 15.27579098146577
STARLINK-30767          
1 58126U 23162J   26161.72695973  .00000547  00000+0  29393-4 0  9995
2 58126  43.0028 323.8506 0001663 262.9069  97.1594 15.27579543146574
STARLINK-30790          
1 58127U 23162K   26162.14924094  .00018432  00000+0  86241-3 0  9998
2 58127  43.0026 328.7199 0019277 281.7742  78.0944 15.19285431146558
STARLINK-30787          
1 58128U 23162L   26161.72824507  .00000354  00000+0  22365-4 0  9992
2 58128  43.0019 323.8605 0000897 259.5182 100.5569 15.27580164146574
STARLINK-30756          
1 58129U 23162M   26162.16876544  .00000973  00000+0  44855-4 0  9995
2 58129  43.0020 324.5471 0000634 215.3396 144.7414 15.27580991146603
STARLINK-30783          
1 58130U 23162N   26162.70261875  .00000946  00000+0  43927-4 0  9991
2 58130  43.0191 318.2864 0003484 285.6964  74.3503 15.27580630146727
STARLINK-30757          
1 58131U 23162P   26162.89492461  .00000006  00000+0  97536-5 0  9992
2 58131  43.0020 317.1437 0001358 265.3141  94.7555 15.27575763146750
STARLINK-30770          
1 58132U 23162Q   26162.17517334 -.00002213  00000+0 -70943-4 0  9997
2 58132  43.0051 324.5906 0001559 271.2183  88.8490 15.27563126146597
STARLINK-30758          
1 58133U 23162R   26161.72310506  .00000735  00000+0  36230-4 0  9996
2 58133  43.0038 323.8242 0001421 266.2438  93.8251 15.27580886146574
STARLINK-30761          
1 58134U 23162S   26162.17903221  .00001575  00000+0  66729-4 0  9998
2 58134  43.0037 324.6209 0001215 269.2061  90.8652 15.27589015146601
STARLINK-30772          
1 58135U 23162T   26161.18282051  .00001005  00000+0  46031-4 0  9992
2 58135  43.0015 330.0527 0000574 262.2721  97.8066 15.27580227146450
STARLINK-30776          
1 58136U 23162U   26162.13748548  .00089095  00000+0  21177-2 0  9994
2 58136  42.9956 319.9310 0015546 312.3047  47.6491 15.40547509146650
STARLINK-30782          
1 58137U 23162V   26162.70469582  .00000514  00000+0  28207-4 0  9998
2 58137  43.0045 321.6951 0001627 270.4630  89.6035 15.27575593146682
STARLINK-30769          
1 58138U 23162W   26162.14690477  .00002127  00000+0  86806-4 0  9997
2 58138  43.0049 324.3882 0001445 265.5503  94.5184 15.27570328146605
